STARLINK-34121          
1 63961U 25099K   26068.34660820  .00025840  00000+0  94465-3 0  9990
2 63961  42.9973 178.1738 0001742 164.0351 196.0556 15.27599454 47284
KUIPER-00209            
1 67776U 26030N   26068.61786546  .00035298  00000+0  11963-2 0  9997
2 67776  51.8838 220.0775 0012191  59.1967 301.0215 15.30161950  5077
